[{"OBJECT_NAME":"STARLINK-5644","OBJECT_ID":"2023-013AQ","EPOCH":"2026-03-09T01:10:03.131904","MEAN_MOTION":15.02537816,"ECCENTRICITY":0.00014034,"INCLINATION":43.0029,"RA_OF_ASC_NODE":316.749,"ARG_OF_PERICENTER":267.6266,"MEAN_ANOMALY":92.4415,"EPHEMERIS_TYPE":0,"CLASSIFICATION_TYPE":"U","NORAD_CAT_ID":55369,"ELEMENT_SET_NO":999,"REV_AT_EPOCH":17146,"BSTAR":6.470814e-6,"MEAN_MOTION_DOT":-1.16e-6,"MEAN_MOTION_DDOT":0},{"OBJECT_NAME":"PEGASUS DEB","OBJECT_ID":"1994-029AEX","EPOCH":"2026-03-09T10:21:12.559968","MEAN_MOTION":14.69785081,"ECCENTRICITY":0.01957394,"INCLINATION":81.9702,"RA_OF_ASC_NODE":117.9188,"ARG_OF_PERICENTER":51.5385,"MEAN_ANOMALY":310.3202,"EPHEMERIS_TYPE":0,"CLASSIFICATION_TYPE":"U","NORAD_CAT_ID":39312,"ELEMENT_SET_NO":999,"REV_AT_EPOCH":67444,"BSTAR":0.0006881266,"MEAN_MOTION_DOT":5.551e-5,"MEAN_MOTION_DDOT":0}]
